TRANSPORTER-10 OBJECT AD
1 59125U 24043AD  26068.86032889  .00011954  00000+0  36311-3 0  9997
2 59125  97.5470 207.3753 0008984 221.4908 138.5653 15.34189901112026
STARLINK-35726          
1 66280U 25247R   26068.65994542  .00027990  00000+0  95388-3 0  9990
2 66280  53.1602 191.2591 0001242  63.1435 296.9692 15.30190344 21039
